NORAD_CAT_ID,OBJECT_NAME,OBJECT_TYPE,EPOCH,MEAN_MOTION,ECCENTRICITY,INCLINATION,RA_OF_ASC_NODE,ARG_OF_PERICENTER,MEAN_ANOMALY,BSTAR,MEAN_MOTION_DOT,MEAN_MOTION_DDOT,TLE_LINE0,TLE_LINE1,TLE_LINE2,SEMIMAJOR_AXIS,PERIOD,APOGEE,PERIGEE,DECAYED
54103.0,STARLINK-5200,PAYLOAD,2023-02-03 02:00:01,15.25124066,0.0001288,53.2142,350.1798,99.9311,249.1029,-0.04024,-0.00944899,0.0,0 STARLINK-5200,1 54103U 22136BE  23034.08334491 -.00944899  00000-0 -40240-1 0  9997,2 54103  53.2142 350.1798 0001288  99.9311 249.1029 15.25124066 17047,6868.55,94.419,491.3,489.53,0.0
54103.0,STARLINK-5200,PAYLOAD,2023-02-03 14:00:01,15.24142299,0.0001354,53.2146,347.8791,99.0411,115.8359,-0.040825,-0.0093176,0.0,0 STARLINK-5200,1 54103U 22136BE  23034.58334491 -.00931760  00000-0 -40825-1 0  9994,2 54103  53.2146 347.8791 0001354  99.0411 115.8359 15.24142299  1307,6871.499,94.479,494.295,492.434,0.0
54103.0,STARLINK-5200,PAYLOAD,2023-02-03 22:00:00,15.23506785,0.0001438,53.2148,346.3475,106.8219,137.6282,-0.042243,-0.00944916,0.0,0 STARLINK-5200,1 54103U 22136BE  23034.91667824 -.00944916  00000-0 -42243-1 0  9993,2 54103  53.2148 346.3475 0001438 106.8219 137.6282 15.23506785 17170,6873.41,94.519,496.263,494.287,0.0
54103.0,STARLINK-5200,PAYLOAD,2023-02-04 00:00:00,15.23347514,0.0001272,53.2149,345.9654,103.4514,238.2742,-0.043266,-0.0096181,0.0,0 STARLINK-5200,1 54103U 22136BE  23035.00001157 -.00961810  00000-0 -43266-1 0  9993,2 54103  53.2149 345.9654 0001272 103.4514 238.2742 15.23347514  1302,6873.889,94.529,496.628,494.88,0.0
54103.0,STARLINK-5200,PAYLOAD,2023-02-04 14:00:01,15.22184304,0.0001293,53.2152,343.2896,103.2636,198.0162,-0.042875,-0.00923643,0.0,0 STARLINK-5200,1 54103U 22136BE  23035.58334491 -.00923643  00000-0 -42875-1 0  9993,2 54103  53.2152 343.2896 0001293 103.2636 198.0162 15.22184304  1305,6877.39,94.601,500.145,498.366,0.0
54103.0,STARLINK-5200,PAYLOAD,2023-02-04 22:00:00,15.21556207,0.0001322,53.2155,341.7626,107.7252,220.7789,-0.045056,-0.00950588,0.0,0 STARLINK-5200,1 54103U 22136BE  23035.91667824 -.00950588  00000-0 -45056-1 0  9991,2 54103  53.2155 341.7626 0001322 107.7252 220.7789 15.21556207  1300,6879.283,94.64,502.057,500.239,0.0
54103.0,STARLINK-5200,PAYLOAD,2023-02-05 00:00:02,15.21394192,0.0001306,53.2154,341.3818,97.433,327.8243,-0.045935,-0.00963456,0.0,0 STARLINK-5200,1 54103U 22136BE  23036.00002315 -.00963456  00000-0 -45935-1 0  9994,2 54103  53.2154 341.3818 0001306  97.4330 327.8243 15.21394192 17339,6879.771,94.65,502.535,500.738,0.0
54103.0,STARLINK-5200,PAYLOAD,2023-02-05 14:00:01,15.20223416,0.0001219,53.2158,338.7138,101.0768,279.6296,-0.044709,-0.00910062,0.0,0 STARLINK-5200,1 54103U 22136BE  23036.58335648 -.00910062  00000-0 -44709-1 0  9998,2 54103  53.2158 338.7138 0001219 101.0768 279.6296 15.20223416  1309,6883.303,94.723,506.007,504.329,0.0
54103.0,STARLINK-5200,PAYLOAD,2023-02-05 16:00:00,15.2004463,0.0001289,53.2157,338.3329,99.9383,17.004,-0.043223,-0.00877627,0.0,0 STARLINK-5200,1 54103U 22136BE  23036.66667824 -.00877627  00000-0 -43223-1 0  9990,2 54103  53.2157 338.3329 0001289  99.9383  17.0040 15.20044630 17432,6883.843,94.734,506.595,504.821,0.0
54103.0,STARLINK-5200,PAYLOAD,2023-02-05 22:00:00,15.19603955,0.0001285,53.216,337.1918,102.3405,303.178,-0.04794,-0.00954693,0.0,0 STARLINK-5200,1 54103U 22136BE  23036.91667824 -.00954693  00000-0 -47940-1 0  9997,2 54103  53.2160 337.1918 0001285 102.3405 303.1780 15.19603955  1305,6885.174,94.762,507.923,506.154,0.0
54103.0,STARLINK-5200,PAYLOAD,2023-02-06 06:00:00,15.18903777,0.0001279,53.216,335.6727,90.3248,339.3137,-0.044175,-0.00868263,0.0,0 STARLINK-5200,1 54103U 22136BE  23037.25001157 -.00868263  00000-0 -44175-1 0  9990,2 54103  53.2160 335.6727 0001279  90.3248 339.3137 15.18903777 17522,6887.289,94.805,510.035,508.274,0.0
54103.0,STARLINK-5200,PAYLOAD,2023-02-06 14:00:01,15.18266241,0.0001311,53.2162,334.1519,98.9149,354.0494,-0.04688,-0.00901952,0.0,0 STARLINK-5200,1 54103U 22136BE  23037.58334491 -.00901952  00000-0 -46880-1 0  9994,2 54103  53.2162 334.1519 0001311  98.9149 354.0494 15.18266241  1305,6889.217,94.845,511.985,510.179,0.0
54103.0,STARLINK-5200,PAYLOAD,2023-02-06 22:00:00,15.17650043,0.0001399,53.2163,332.6345,100.1655,15.3273,-0.050802,-0.00955765,0.0,0 STARLINK-5200,1 54103U 22136BE  23037.91667824 -.00955765  00000-0 -50802-1 0  9990,2 54103  53.2163 332.6345 0001399 100.1655  15.3273 15.17650043  1308,6891.082,94.884,513.911,511.983,0.0
54103.0,STARLINK-5200,PAYLOAD,2023-02-07 00:00:00,15.17477063,0.0001466,53.2163,332.256,100.7872,110.2244,-0.050575,-0.00947433,0.0,0 STARLINK-5200,1 54103U 22136BE  23038.00001157 -.00947433  00000-0 -50575-1 0  9992,2 54103  53.2163 332.2560 0001466 100.7872 110.2244 15.17477063 17630,6891.606,94.894,514.481,512.46,0.0
54103.0,STARLINK-5200,PAYLOAD,2023-02-07 14:00:01,15.16307052,0.0001374,53.2164,329.6038,100.2363,58.0092,-0.048925,-0.00890472,0.0,0 STARLINK-5200,1 54103U 22136BE  23038.58334491 -.00890472  00000-0 -48925-1 0  9991,2 54103  53.2164 329.6038 0001374 100.2363  58.0092 15.16307052  1305,6895.15,94.968,517.963,516.068,0.0
54103.0,STARLINK-5200,PAYLOAD,2023-02-07 16:00:01,15.16141945,0.0001387,53.2163,329.2251,107.8036,145.6259,-0.048582,-0.00880782,0.0,0 STARLINK-5200,1 54103U 22136BE  23038.66668981 -.00880782  00000-0 -48582-1 0  9996,2 54103  53.2163 329.2251 0001387 107.8036 145.6259 15.16141945 17741,6895.651,94.978,518.472,516.559,0.0
54103.0,STARLINK-5200,PAYLOAD,2023-02-07 22:00:00,15.15695039,0.0001483,53.2166,328.0913,101.4059,77.0206,-0.053627,-0.00953939,0.0,0 STARLINK-5200,1 54103U 22136BE  23038.91667824 -.00953939  00000-0 -53627-1 0  9990,2 54103  53.2166 328.0913 0001483 101.4059  77.0206 15.15695039  1300,6897.006,95.006,519.894,517.848,0.0
54103.0,STARLINK-5200,PAYLOAD,2023-02-08 08:00:01,15.14881548,0.0001205,53.2161,326.2032,86.2308,206.3359,-0.054584,-0.00949044,0.0,0 STARLINK-5200,1 54103U 22136BE  23039.33334491 -.00949044  00000-0 -54584-1 0  9993,2 54103  53.2161 326.2032 0001205  86.2308 206.3359 15.14881548 17849,6899.475,95.057,522.172,520.509,0.0
54103.0,STARLINK-5200,PAYLOAD,2023-02-08 14:00:01,15.1434968,0.0001371,53.2165,325.0695,93.316,123.1695,-0.051233,-0.00882455,0.0,0 STARLINK-5200,1 54103U 22136BE  23039.58334491 -.00882455  00000-0 -51233-1 0  9990,2 54103  53.2165 325.0695 0001371  93.3160 123.1695 15.14349680  1303,6901.091,95.09,523.902,522.009,0.0
54103.0,STARLINK-5200,PAYLOAD,2023-02-08 22:00:00,15.1373998,0.0001463,53.2165,323.5618,94.9121,139.4071,-0.056532,-0.00951436,0.0,0 STARLINK-5200,1 54103U 22136BE  23039.91667824 -.00951436  00000-0 -56532-1 0  9999,2 54103  53.2165 323.5618 0001463  94.9121 139.4071 15.13739980  1300,6902.944,95.129,525.818,523.799,0.0
54103.0,STARLINK-5200,PAYLOAD,2023-02-09 08:00:01,15.12934017,0.0001258,53.2159,321.6791,85.9036,259.6191,-0.058196,-0.00956932,0.0,0 STARLINK-5200,1 54103U 22136BE  23040.33334491 -.00956932  00000-0 -58196-1 0  9992,2 54103  53.2159 321.6791 0001258  85.9036 259.6191 15.12934017 17998,6905.395,95.179,528.129,526.391,0.0
54103.0,STARLINK-5200,PAYLOAD,2023-02-09 12:00:00,15.12580174,0.0001409,53.2162,320.9254,91.025,82.6538,-0.056327,-0.00919967,0.0,0 STARLINK-5200,1 54103U 22136BE  23040.50001157 -.00919967  00000-0 -56327-1 0  9992,2 54103  53.2162 320.9254 0001409  91.0250  82.6538 15.12580174  1300,6906.472,95.202,529.31,527.364,0.0
54103.0,STARLINK-5200,PAYLOAD,2023-02-09 22:00:00,15.11783988,0.0001413,53.2161,319.0457,97.5967,185.5747,-0.059487,-0.00947853,0.0,0 STARLINK-5200,1 54103U 22136BE  23040.91667824 -.00947853  00000-0 -59487-1 0  9991,2 54103  53.2161 319.0457 0001413  97.5967 185.5747 15.11783988 18089,6908.896,95.252,531.738,529.785,0.0
54103.0,STARLINK-5200,PAYLOAD,2023-02-10 00:00:00,15.11608745,0.0001335,53.216,318.6705,90.1096,286.8195,-0.058641,-0.00931133,0.0,0 STARLINK-5200,1 54103U 22136BE  23041.00001157 -.00931133  00000-0 -58641-1 0  9998,2 54103  53.2160 318.6705 0001335  90.1096 286.8195 15.11608745  1300,6909.43,95.263,532.218,530.373,0.0
54103.0,STARLINK-5200,PAYLOAD,2023-02-10 04:00:00,15.11254625,0.0001523,53.2161,317.9198,87.1764,117.1177,-0.055132,-0.00871302,0.0,0 STARLINK-5200,1 54103U 22136BE  23041.16667824 -.00871302  00000-0 -55132-1 0  9997,2 54103  53.2161 317.9198 0001523  87.1764 117.1177 15.11254625  1306,6910.51,95.285,533.427,531.322,0.0
54103.0,STARLINK-5200,PAYLOAD,2023-02-10 18:00:00,15.10149142,0.0001519,53.2157,315.2916,97.2078,41.2936,-0.060386,-0.00921455,0.0,0 STARLINK-5200,1 54103U 22136BE  23041.75001157 -.00921455  00000-0 -60386-1 0  9995,2 54103  53.2157 315.2916 0001519  97.2078  41.2936 15.10149142 18208,6913.882,95.355,536.797,534.697,0.0
54103.0,STARLINK-5200,PAYLOAD,2023-02-10 22:00:00,15.0982736,0.0001382,53.2156,314.5431,98.7976,226.1857,-0.062466,-0.00942958,0.0,0 STARLINK-5200,1 54103U 22136BE  23041.91667824 -.00942958  00000-0 -62466-1 0  9994,2 54103  53.2156 314.5431 0001382  98.7976 226.1857 15.09827360  1304,6914.864,95.375,537.685,535.773,0.0
54103.0,STARLINK-5200,PAYLOAD,2023-02-11 08:00:01,15.08909717,0.0001396,53.2149,312.6713,89.9115,340.4126,-0.0073299,-0.001153,0.0,0 STARLINK-5200,1 54103U 22136BE  23042.33334491 -.00115300  00000-0 -73299-2 0  9992,2 54103  53.2149 312.6713 0001396  89.9115 340.4126 15.08909717 18291,6917.667,95.433,540.498,538.567,0.0
54103.0,STARLINK-5200,PAYLOAD,2023-02-11 14:00:01,15.08810644,0.0001482,53.2149,311.5476,99.9912,249.0741,0.0024588,0.00039029,0.0,0 STARLINK-5200,1 54103U 22136BE  23042.58334491  .00039029  00000-0  24588-2 0  9997,2 54103  53.2149 311.5476 0001482  99.9912 249.0741 15.08810644  1308,6917.97,95.439,540.86,538.81,0.0
54103.0,STARLINK-5200,PAYLOAD,2023-02-11 22:00:00,15.0884996,0.0001442,53.215,310.0522,83.8487,276.7936,-0.0022808,-0.00036414,0.0,0 STARLINK-5200,1 54103U 22136BE  23042.91667824 -.00036414  00000-0 -22808-2 0  9993,2 54103  53.2150 310.0522 0001442  83.8487 276.7936 15.08849960  1318,6917.85,95.437,540.712,538.717,0.0
